NORAD_CAT_ID,OBJECT_NAME,OBJECT_TYPE,EPOCH,MEAN_MOTION,ECCENTRICITY,INCLINATION,RA_OF_ASC_NODE,ARG_OF_PERICENTER,MEAN_ANOMALY,BSTAR,MEAN_MOTION_DOT,MEAN_MOTION_DDOT,TLE_LINE0,TLE_LINE1,TLE_LINE2,SEMIMAJOR_AXIS,PERIOD,APOGEE,PERIGEE,DECAYED
55754.0,STARLINK-5612,PAYLOAD,2023-08-10 09:09:46,14.98331395,0.0003019,69.9989,100.2718,270.3187,89.7626,8.04e-06,3e-08,0.0,0 STARLINK-5612,1 55754U 23028P   23222.38179324  .00000003  00000-0  80400-5 0  9999,2 55754  69.9989 100.2718 0003019 270.3187  89.7626 14.98331395 24895,6950.189,96.107,574.152,569.955,0.0
55754.0,STARLINK-5612,PAYLOAD,2023-08-11 02:47:15,14.98339984,0.0003044,69.9988,98.42,269.0477,91.0334,-7.5599e-05,-9.95e-06,0.0,0 STARLINK-5612,1 55754U 23028P   23223.11614657 -.00000995  00000-0 -75599-4 0  9998,2 55754  69.9988  98.4200 0003044 269.0477  91.0334 14.98339984 25001,6950.162,96.106,574.143,569.911,0.0
55754.0,STARLINK-5612,PAYLOAD,2023-08-11 09:11:47,14.98330244,0.0003,69.9963,97.7446,268.8494,91.2322,-8.1746e-05,-1.068e-05,0.0,0 STARLINK-5612,1 55754U 23028P   23223.38319188 -.00001068  00000-0 -81746-4 0  9991,2 55754  69.9963  97.7446 0003000 268.8494  91.2322 14.98330244 25049,6950.192,96.107,574.142,569.972,0.0
55754.0,STARLINK-5612,PAYLOAD,2023-08-12 15:38:20,14.98317493,0.0003066,69.9992,94.5461,265.8274,94.2535,0.00023589,2.722e-05,0.0,0 STARLINK-5612,1 55754U 23028P   23224.65163177  .00002722  00000-0  23589-3 0  9993,2 55754  69.9992  94.5461 0003066 265.8274  94.2535 14.98317493 25239,6950.232,96.108,574.228,569.966,0.0
55754.0,STARLINK-5612,PAYLOAD,2023-08-13 01:15:08,14.98333995,0.0003067,69.9992,93.5362,265.064,95.0169,2.4905e-05,2.04e-06,0.0,0 STARLINK-5612,1 55754U 23028P   23225.05218680  .00000204  00000-0  24905-4 0  9995,2 55754  69.9992  93.5362 0003067 265.0640  95.0169 14.98333995 25291,6950.181,96.107,574.177,569.914,0.0
55754.0,STARLINK-5612,PAYLOAD,2023-08-13 18:52:38,14.98326473,0.0003095,69.9989,91.6856,266.1242,93.9563,1.1766e-05,4.7e-07,0.0,0 STARLINK-5612,1 55754U 23028P   23225.78655180  .00000047  00000-0  11766-4 0  9991,2 55754  69.9989  91.6856 0003095 266.1242  93.9563 14.98326473 25406,6950.204,96.107,574.22,569.918,0.0
55754.0,STARLINK-5612,PAYLOAD,2023-08-15 01:19:10,14.98336381,0.0003143,69.9986,88.4876,268.1118,91.9681,4.1013e-05,3.96e-06,0.0,0 STARLINK-5612,1 55754U 23028P   23227.05498369  .00000396  00000-0  41013-4 0  9992,2 55754  69.9986  88.4876 0003143 268.1118  91.9681 14.98336381 25595,6950.173,96.107,574.223,569.854,0.0
55754.0,STARLINK-5612,PAYLOAD,2023-08-15 14:08:15,14.98326737,0.0003101,69.9987,87.141,268.6744,91.406,-1.1985e-05,-2.36e-06,0.0,0 STARLINK-5612,1 55754U 23028P   23227.58907048 -.00000236  00000-0 -11985-4 0  9999,2 55754  69.9987  87.1410 0003101 268.6744  91.4060 14.98326737 25679,6950.203,96.107,574.223,569.913,0.0
55754.0,STARLINK-5612,PAYLOAD,2023-08-16 23:47:04,14.98335539,0.0003093,69.998,83.6064,269.3856,90.6949,-1.2045e-05,-2.37e-06,0.0,0 STARLINK-5612,1 55754U 23028P   23228.99102414 -.00000237  00000-0 -12045-4 0  9998,2 55754  69.9980  83.6064 0003093 269.3856  90.6949 14.98335539 25880,6950.176,96.107,574.19,569.891,0.0
55754.0,STARLINK-5612,PAYLOAD,2023-08-17 23:49:05,14.98329505,0.0003045,69.9978,81.0805,266.1086,93.9725,1.9352e-05,1.38e-06,0.0,0 STARLINK-5612,1 55754U 23028P   23229.99242621  .00000138  00000-0  19352-4 0  9990,2 55754  69.9978  81.0805 0003045 266.1086  93.9725 14.98329505 26031,6950.194,96.107,574.176,569.943,0.0
55754.0,STARLINK-5612,PAYLOAD,2023-08-18 23:51:06,14.98330888,0.000311,69.9973,78.5568,269.5364,90.5438,-1.7355e-05,-3e-06,0.0,0 STARLINK-5612,1 55754U 23028P   23230.99382689 -.00000300  00000-0 -17355-4 0  9995,2 55754  69.9973  78.5568 0003110 269.5364  90.5438 14.98330888 26188,6950.19,96.107,574.217,569.894,0.0
55754.0,STARLINK-5612,PAYLOAD,2023-08-20 17:30:36,14.983329,0.0003184,69.9985,74.1787,272.2453,87.8341,3.4881e-05,3.23e-06,0.0,0 STARLINK-5612,1 55754U 23028P   23232.72958470  .00000323  00000-0  34881-4 0  9991,2 55754  69.9985  74.1787 0003184 272.2453  87.8341 14.98332900 26445,6950.184,96.107,574.262,569.836,0.0
55754.0,STARLINK-5612,PAYLOAD,2023-08-21 17:32:37,14.98330121,0.0002889,69.999,71.6528,273.2092,86.8737,-2.7678e-05,-4.23e-06,0.0,0 STARLINK-5612,1 55754U 23028P   23233.73098763 -.00000423  00000-0 -27678-4 0  9992,2 55754  69.9990  71.6528 0002889 273.2092  86.8737 14.98330121 26594,6950.193,96.107,574.065,570.05,0.0
55754.0,STARLINK-5612,PAYLOAD,2023-08-22 23:59:10,14.98332476,0.0002834,69.9995,68.4547,267.0769,93.0066,-2.1279e-05,-3.47e-06,0.0,0 STARLINK-5612,1 55754U 23028P   23234.99942438 -.00000347  00000-0 -21279-4 0  9994,2 55754  69.9995  68.4547 0002834 267.0769  93.0066 14.98332476 26787,6950.185,96.107,574.02,570.081,0.0
55754.0,STARLINK-5612,PAYLOAD,2023-08-24 12:50:15,14.98327877,0.0003034,69.9996,64.5846,265.1808,94.9004,3.7677e-05,3.57e-06,0.0,0 STARLINK-5612,1 55754U 23028P   23236.53490468  .00000357  00000-0  37677-4 0  9995,2 55754  69.9996  64.5846 0003034 265.1808  94.9004 14.98327877 27011,6950.199,96.107,574.173,569.956,0.0
55754.0,STARLINK-5612,PAYLOAD,2023-08-25 12:52:16,14.98332438,0.0003085,69.9995,62.0594,266.0075,94.0732,3.9556e-05,3.79e-06,0.0,0 STARLINK-5612,1 55754U 23028P   23237.53630190  .00000379  00000-0  39556-4 0  9996,2 55754  69.9995  62.0594 0003085 266.0075  94.0732 14.98332438 27169,6950.185,96.107,574.194,569.906,0.0
55754.0,STARLINK-5612,PAYLOAD,2023-08-25 19:16:48,14.98333536,0.0003038,69.9996,61.3863,264.9089,95.1724,5.3351e-05,5.44e-06,0.0,0 STARLINK-5612,1 55754U 23028P   23237.80334027  .00000544  00000-0  53351-4 0  9999,2 55754  69.9996  61.3863 0003038 264.9089  95.1724 14.98333536 27209,6950.182,96.107,574.158,569.935,0.0
55754.0,STARLINK-5612,PAYLOAD,2023-08-26 11:18:09,14.98332395,0.0002729,70.0003,59.7023,268.1596,91.925,-6.5431e-06,-1.71e-06,0.0,0 STARLINK-5612,1 55754U 23028P   23238.47094214 -.00000171  00000-0 -65431-5 0  9995,2 55754  70.0003  59.7023 0002729 268.1596  91.9250 14.98332395 27306,6950.185,96.107,573.947,570.154,0.0
55754.0,STARLINK-5612,PAYLOAD,2023-08-26 20:54:57,14.98329615,0.0002792,70.0001,58.6923,268.563,91.5209,-3.2817e-05,-4.84e-06,0.0,0 STARLINK-5612,1 55754U 23028P   23238.87150411 -.00000484  00000-0 -32817-4 0  9999,2 55754  70.0001  58.6923 0002792 268.5630  91.5209 14.98329615 27361,6950.194,96.107,574.0,570.119,0.0
55754.0,STARLINK-5612,PAYLOAD,2023-08-27 20:56:58,14.98331038,0.0002897,70.0,56.1679,266.3575,93.7252,-3.5699e-05,-5.19e-06,0.0,0 STARLINK-5612,1 55754U 23028P   23239.87290191 -.00000519  00000-0 -35699-4 0  9990,2 55754  70.0000  56.1679 0002897 266.3575  93.7252 14.98331038 27512,6950.19,96.107,574.068,570.041,0.0
55754.0,STARLINK-5612,PAYLOAD,2023-08-28 20:58:59,14.98329897,0.0003025,69.9998,53.6423,268.747,91.3342,1.1446e-05,4.4e-07,0.0,0 STARLINK-5612,1 55754U 23028P   23240.87430078  .00000044  00000-0  11446-4 0  9997,2 55754  69.9998  53.6423 0003025 268.7470  91.3342 14.98329897 27668,6950.193,96.107,574.161,569.956,0.0
55754.0,STARLINK-5612,PAYLOAD,2023-08-28 22:35:07,14.98331085,0.0003051,69.9997,53.474,268.8917,91.1893,2.2382e-05,1.74e-06,0.0,0 STARLINK-5612,1 55754U 23028P   23240.94105968  .00000174  00000-0  22382-4 0  9997,2 55754  69.9997  53.4740 0003051 268.8917  91.1893 14.98331085 27675,6950.19,96.107,574.175,569.934,0.0
55754.0,STARLINK-5612,PAYLOAD,2023-08-29 19:24:52,14.9832835,0.0003126,69.9996,51.2856,270.7794,89.3007,-1.3649e-05,-2.56e-06,0.0,0 STARLINK-5612,1 55754U 23028P   23241.80894274 -.00000256  00000-0 -13649-4 0  9997,2 55754  69.9996  51.2856 0003126 270.7794  89.3007 14.98328350 27808,6950.198,96.107,574.236,569.89,0.0
55754.0,STARLINK-5612,PAYLOAD,2023-08-29 22:37:08,14.98329743,0.0003107,69.9998,50.9491,270.0634,90.0169,1.4611e-06,-7.6e-07,0.0,0 STARLINK-5612,1 55754U 23028P   23241.94246160 -.00000076  00000-0  14611-5 0  9997,2 55754  69.9998  50.9491 0003107 270.0634  90.0169 14.98329743 27823,6950.194,96.107,574.218,569.899,0.0
55754.0,STARLINK-5612,PAYLOAD,2023-08-30 16:14:37,14.98330379,0.0003076,69.9999,49.0972,269.8239,90.2567,2.2162e-05,1.71e-06,0.0,0 STARLINK-5612,1 55754U 23028P   23242.67682062  .00000171  00000-0  22162-4 0  9997,2 55754  69.9999  49.0972 0003076 269.8239  90.2567 14.98330379 27932,6950.192,96.107,574.195,569.919,0.0
55754.0,STARLINK-5612,PAYLOAD,2023-08-30 22:39:09,14.98332008,0.0003022,70.0,48.4238,268.7155,91.3658,4.4427e-05,4.37e-06,0.0,0 STARLINK-5612,1 55754U 23028P   23242.94385867  .00000437  00000-0  44427-4 0  9993,2 55754  70.0000  48.4238 0003022 268.7155  91.3658 14.98332008 27970,6950.187,96.107,574.152,569.951,0.0
55754.0,STARLINK-5612,PAYLOAD,2023-08-31 21:05:02,14.98338477,0.0002542,70.0006,46.0679,264.3962,95.6907,-0.00011071,-1.414e-05,0.0,0 STARLINK-5612,1 55754U 23028P   23243.87849778 -.00001414  00000-0 -11071-3 0  9998,2 55754  70.0006  46.0679 0002542 264.3962  95.6907 14.98338477 28110,6950.167,96.106,573.798,570.265,0.0
55754.0,STARLINK-5612,PAYLOAD,2023-09-01 09:54:06,14.9833405,0.0003097,70.0007,44.7221,267.2566,92.8238,-5.7383e-05,-7.78e-06,0.0,0 STARLINK-5612,1 55754U 23028P   23244.41257817 -.00000778  00000-0 -57383-4 0  9995,2 55754  70.0007  44.7221 0003097 267.2566  92.8238 14.98334050 28194,6950.18,96.107,574.198,569.893,0.0
55754.0,STARLINK-5612,PAYLOAD,2023-09-01 19:30:55,14.98331499,0.0002891,70.0008,43.7103,274.7168,85.3661,3.6128e-06,-5e-07,0.0,0 STARLINK-5612,1 55754U 23028P   23244.81313913 -.00000050  00000-0  36128-5 0  9996,2 55754  70.0008  43.7103 0002891 274.7168  85.3661 14.98331499 28253,6950.188,96.107,574.063,570.044,0.0
55754.0,STARLINK-5612,PAYLOAD,2023-09-02 09:56:07,14.98329699,0.0002918,69.9982,42.1963,273.1627,86.9198,-1.7551e-05,-3.02e-06,0.0,0 STARLINK-5612,1 55754U 23028P   23245.41398002 -.00000302  00000-0 -17551-4 0  9994,2 55754  69.9982  42.1963 0002918 273.1627  86.9198 14.98329699 28342,6950.194,96.107,574.087,570.031,0.0
